[{"OBJECT_NAME":"STARLINK-2415","OBJECT_ID":"2021-018AT","EPOCH":"2026-03-09T19:22:10.259616","MEAN_MOTION":15.3017606,"ECCENTRICITY":6.763e-5,"INCLINATION":53.1577,"RA_OF_ASC_NODE":254.7395,"ARG_OF_PERICENTER":66.6649,"MEAN_ANOMALY":293.4423,"EPHEMERIS_TYPE":0,"CLASSIFICATION_TYPE":"U","NORAD_CAT_ID":47828,"ELEMENT_SET_NO":999,"REV_AT_EPOCH":27657,"BSTAR":-0.00013328782,"MEAN_MOTION_DOT":-4.301e-5,"MEAN_MOTION_DDOT":0},{"OBJECT_NAME":"EOSSAT-1","OBJECT_ID":"2023-001AW","EPOCH":"2026-03-09T17:40:07.010400","MEAN_MOTION":15.32339828,"ECCENTRICITY":0.00112629,"INCLINATION":97.3357,"RA_OF_ASC_NODE":130.2294,"ARG_OF_PERICENTER":110.3168,"MEAN_ANOMALY":249.9285,"EPHEMERIS_TYPE":0,"CLASSIFICATION_TYPE":"U","NORAD_CAT_ID":55053,"ELEMENT_SET_NO":999,"REV_AT_EPOCH":17668,"BSTAR":0.00024844399,"MEAN_MOTION_DOT":7.695e-5,"MEAN_MOTION_DDOT":0}]
